{
  "links" : {
    "next" : "https://api.nasa.gov/neo/rest/v1/feed?start_date=2002-02-09&end_date=2002-02-09&detailed=true&api_key=t0TVs3DtDT2H8Oy2Zy8m2eVrNsAVKAexjcZXUckd",
    "prev" : "https://api.nasa.gov/neo/rest/v1/feed?start_date=2002-02-07&end_date=2002-02-07&detailed=true&api_key=t0TVs3DtDT2H8Oy2Zy8m2eVrNsAVKAexjcZXUckd",
    "self" : "https://api.nasa.gov/neo/rest/v1/feed?start_date=2002-02-08&end_date=2002-02-08&detailed=true&api_key=t0TVs3DtDT2H8Oy2Zy8m2eVrNsAVKAexjcZXUckd"
  },
  "element_count" : 2,
  "near_earth_objects" : {
    "2002-02-08" : [ {
      "links" : {
        "self" : "https://api.nasa.gov/neo/rest/v1/neo/3114033?api_key=t0TVs3DtDT2H8Oy2Zy8m2eVrNsAVKAexjcZXUckd"
      },
      "neo_reference_id" : "3114033",
      "name" : "(2002 CB26)",
      "nasa_jpl_url" : "http://ssd.jpl.nasa.gov/sbdb.cgi?sstr=3114033",
      "absolute_magnitude_h" : 26.9,
      "estimated_diameter" : {
        "kilometers" : {
          "estimated_diameter_min" : 0.0110803882,
          "estimated_diameter_max" : 0.0247765013
        },
        "meters" : {
          "estimated_diameter_min" : 11.0803882126,
          "estimated_diameter_max" : 24.7765012606
        },
        "miles" : {
          "estimated_diameter_min" : 0.0068850319,
          "estimated_diameter_max" : 0.0153953994
        },
        "feet" : {
          "estimated_diameter_min" : 36.3529808636,
          "estimated_diameter_max" : 81.2877363957
        }
      },
      "is_potentially_hazardous_asteroid" : false,
      "close_approach_data" : [ {
        "close_approach_date" : "2002-02-08",
        "epoch_date_close_approach" : 1013155200000,
        "relative_velocity" : {
          "kilometers_per_second" : "22.363604593",
          "kilometers_per_hour" : "80508.9765346236",
          "miles_per_hour" : "50025.1471139721"
        },
        "miss_distance" : {
          "astronomical" : "0.0031862471",
          "lunar" : "1.2394500971",
          "kilometers" : "476655.78125",
          "miles" : "296180.15625"
        },
        "orbiting_body" : "Earth"
      } ],
      "orbital_data" : {
        "orbit_id" : "8",
        "orbit_determination_date" : "2017-04-06 09:15:27",
        "orbit_uncertainty" : "9",
        "minimum_orbit_intersection" : ".00142906",
        "jupiter_tisserand_invariant" : "3.505",
        "epoch_osculation" : "2452317.5",
        "eccentricity" : ".7230224185930485",
        "semi_major_axis" : "1.952671926751756",
        "inclination" : "6.818845543174323",
        "ascending_node_longitude" : "140.3590931373203",
        "orbital_period" : "996.6492646381371",
        "perihelion_distance" : ".5408463475529532",
        "perihelion_argument" : "264.8954084938438",
        "aphelion_distance" : "3.364497505950558",
        "perihelion_time" : "2452268.304396602127",
        "mean_anomaly" : "17.76995965543061",
        "mean_motion" : ".3612103201929403",
        "equinox" : "J2000"
      }
    }, {
      "links" : {
        "self" : "https://api.nasa.gov/neo/rest/v1/neo/3712472?api_key=t0TVs3DtDT2H8Oy2Zy8m2eVrNsAVKAexjcZXUckd"
      },
      "neo_reference_id" : "3712472",
      "name" : "(2015 DJ198)",
      "nasa_jpl_url" : "http://ssd.jpl.nasa.gov/sbdb.cgi?sstr=3712472",
      "absolute_magnitude_h" : 20.9,
      "estimated_diameter" : {
        "kilometers" : {
          "estimated_diameter_min" : 0.1756123185,
          "estimated_diameter_max" : 0.3926810818
        },
        "meters" : {
          "estimated_diameter_min" : 175.6123184804,
          "estimated_diameter_max" : 392.6810818086
        },
        "miles" : {
          "estimated_diameter_min" : 0.1091204019,
          "estimated_diameter_max" : 0.2440006365
        },
        "feet" : {
          "estimated_diameter_min" : 576.1559189633,
          "estimated_diameter_max" : 1288.3238004408
        }
      },
      "is_potentially_hazardous_asteroid" : false,
      "close_approach_data" : [ {
        "close_approach_date" : "2002-02-08",
        "epoch_date_close_approach" : 1013155200000,
        "relative_velocity" : {
          "kilometers_per_second" : "7.2733912402",
          "kilometers_per_hour" : "26184.2084646192",
          "miles_per_hour" : "16269.8488651407"
        },
        "miss_distance" : {
          "astronomical" : "0.4445528789",
          "lunar" : "172.931060791",
          "kilometers" : "66504164",
          "miles" : "41323772"
        },
        "orbiting_body" : "Earth"
      } ],
      "orbital_data" : {
        "orbit_id" : "23",
        "orbit_determination_date" : "2017-04-06 08:35:24",
        "orbit_uncertainty" : "3",
        "minimum_orbit_intersection" : ".195459",
        "jupiter_tisserand_invariant" : "4.476",
        "epoch_osculation" : "2458000.5",
        "eccentricity" : ".2850446957580793",
        "semi_major_axis" : "1.501117161485631",
        "inclination" : "11.26084363859968",
        "ascending_node_longitude" : "127.6468540395003",
        "orbital_period" : "671.7695464512382",
        "perihelion_distance" : "1.073231676892728",
        "perihelion_argument" : "91.77262121118528",
        "aphelion_distance" : "1.929002646078535",
        "perihelion_time" : "2457796.872976006606",
        "mean_anomaly" : "109.1233281188087",
        "mean_motion" : ".5358980648970686",
        "equinox" : "J2000"
      }
    } ]
  }
}